[{"OBJECT_NAME":"STARLINK-32507","OBJECT_ID":"2024-222U","EPOCH":"2026-03-09T13:23:25.500192","MEAN_MOTION":15.27593585,"ECCENTRICITY":0.000155,"INCLINATION":43.0013,"RA_OF_ASC_NODE":136.5179,"ARG_OF_PERICENTER":284.621,"MEAN_ANOMALY":75.447,"EPHEMERIS_TYPE":0,"CLASSIFICATION_TYPE":"U","NORAD_CAT_ID":62132,"ELEMENT_SET_NO":999,"REV_AT_EPOCH":7258,"BSTAR":0.0012123,"MEAN_MOTION_DOT":0.00033261,"MEAN_MOTION_DDOT":0},{"OBJECT_NAME":"COSMOS 1862","OBJECT_ID":"1987-055A","EPOCH":"2026-03-09T22:37:02.390592","MEAN_MOTION":15.30492139,"ECCENTRICITY":0.00097484,"INCLINATION":82.4856,"RA_OF_ASC_NODE":47.1862,"ARG_OF_PERICENTER":26.6325,"MEAN_ANOMALY":333.5414,"EPHEMERIS_TYPE":0,"CLASSIFICATION_TYPE":"U","NORAD_CAT_ID":18152,"ELEMENT_SET_NO":999,"REV_AT_EPOCH":8987,"BSTAR":0.00034125048,"MEAN_MOTION_DOT":0.00010107,"MEAN_MOTION_DDOT":0}]
